{
  "type": "FeatureCollection",
  "features": [
    {
      "type": "Feature",
      "properties": {
        "norad_id": 34680,
        "name": "COSMOS 2251 DEB",
        "group": "cosmos-2251-debris",
        "lat": 45.22342477228058,
        "lon": 146.86481274518505,
        "alt_km": 691.6985965031972,
        "timestamp": "2025-12-12T14:39:18.327492+00:00",
        "meta_object_name": "COSMOS 2251 DEB",
        "meta_object_id": "1993-036YA",
        "meta_epoch": "2025-12-11T21:03:28.656000",
        "meta_mean_motion": 14.60608857,
        "meta_eccentricity": 0.0006749,
        "meta_inclination": 74.0425,
        "meta_ra_of_asc_node": 131.5036,
        "meta_arg_of_pericenter": 228.2875,
        "meta_mean_anomaly": 285.5668,
        "meta_ephemeris_type": 0,
        "meta_classification_type": "U",
        "meta_norad_cat_id": 34680,
        "meta_element_set_no": 999,
        "meta_rev_at_epoch": 88315,
        "meta_bstar": 0.0019557,
        "meta_mean_motion_dot": 9.498e-05,
        "meta_mean_motion_ddot": 0,
        "tle_line1": "1 34680U 93036YA  25345.87741500  .00009498  00000+0  19557-2 0  9991",
        "tle_line2": "2 34680  74.0425 131.5036 0006749 228.2875 285.5668 14.60608857883154"
      },
      "geometry": {
        "type": "Point",
        "coordinates": [
          146.86481274518505,
          45.22342477228058
        ]
      }
    },
    {
      "type": "Feature",
      "properties": {
        "norad_id": 34681,
        "name": "COSMOS 2251 DEB",
        "group": "cosmos-2251-debris",
        "lat": -73.41372859744719,
        "lon": -175.72767632597223,
        "alt_km": 623.6051592937092,
        "timestamp": "2025-12-12T14:39:18.327501+00:00",
        "meta_object_name": "COSMOS 2251 DEB",
        "meta_object_id": "1993-036YB",
        "meta_epoch": "2025-12-12T07:31:37.922304",
        "meta_mean_motion": 14.83204547,
        "meta_eccentricity": 0.00256149,
        "meta_inclination": 74.0622,
        "meta_ra_of_asc_node": 291.2386,
        "meta_arg_of_pericenter": 348.0286,
        "meta_mean_anomaly": 132.4775,
        "meta_ephemeris_type": 0,
        "meta_classification_type": "U",
        "meta_norad_cat_id": 34681,
        "meta_element_set_no": 999,
        "meta_rev_at_epoch": 89264,
        "meta_bstar": 0.0023084136,
        "meta_mean_motion_dot": 0.00018983,
        "meta_mean_motion_ddot": 0,
        "tle_line1": "1 34681U 93036YB  25346.31363336  .00018983  00000+0  23084-2 0  9998",
        "tle_line2": "2 34681  74.0622 291.2386 0025614 348.0286 132.4775 14.83204547892641"
      },
      "geometry": {
        "type": "Point",
        "coordinates": [
          -175.72767632597223,
          -73.41372859744719
        ]
      }
    },
    {
      "type": "Feature",
      "properties": {
        "norad_id": 34682,
        "name": "COSMOS 2251 DEB",
        "group": "cosmos-2251-debris",
        "lat": 29.566347972284213,
        "lon": 92.57810589837914,
        "alt_km": 707.8872782838771,
        "timestamp": "2025-12-12T14:39:18.327510+00:00",
        "meta_object_name": "COSMOS 2251 DEB",
        "meta_object_id": "1993-036YC",
        "meta_epoch": "2025-12-11T13:53:50.167968",
        "meta_mean_motion": 14.58882941,
        "meta_eccentricity": 0.0018378,
        "meta_inclination": 74.0392,
        "meta_ra_of_asc_node": 85.198,
        "meta_arg_of_pericenter": 218.1607,
        "meta_mean_anomaly": 157.1828,
        "meta_ephemeris_type": 0,
        "meta_classification_type": "U",
        "meta_norad_cat_id": 34682,
        "meta_element_set_no": 999,
        "meta_rev_at_epoch": 88669,
        "meta_bstar": 0.0013393775,
        "meta_mean_motion_dot": 6.264e-05,
        "meta_mean_motion_ddot": 0,
        "tle_line1": "1 34682U 93036YC  25345.57905287  .00006264  00000+0  13394-2 0  9995",
        "tle_line2": "2 34682  74.0392  85.1980 0018378 218.1607 157.1828 14.58882941886692"
      },
      "geometry": {
        "type": "Point",
        "coordinates": [
          92.57810589837914,
          29.566347972284213
        ]
      }
    },
    {
      "type": "Feature",
      "properties": {
        "norad_id": 34683,
        "name": "COSMOS 2251 DEB",
        "group": "cosmos-2251-debris",
        "lat": -0.8619424002931527,
        "lon": -87.23771351095617,
        "alt_km": 669.9656078471817,
        "timestamp": "2025-12-12T14:39:18.327519+00:00",
        "meta_object_name": "COSMOS 2251 DEB",
        "meta_object_id": "1993-036YD",
        "meta_epoch": "2025-12-12T07:22:30.197280",
        "meta_mean_motion": 14.64480729,
        "meta_eccentricity": 0.00182186,
        "meta_inclination": 74.0283,
        "meta_ra_of_asc_node": 93.0984,
        "meta_arg_of_pericenter": 207.9272,
        "meta_mean_anomaly": 174.3806,
        "meta_ephemeris_type": 0,
        "meta_classification_type": "U",
        "meta_norad_cat_id": 34683,
        "meta_element_set_no": 999,
        "meta_rev_at_epoch": 88342,
        "meta_bstar": 0.0021150394,
        "meta_mean_motion_dot": 0.00011219,
        "meta_mean_motion_ddot": 0,
        "tle_line1": "1 34683U 93036YD  25346.30729395  .00011219  00000+0  21150-2 0  9997",
        "tle_line2": "2 34683  74.0283  93.0984 0018218 207.9272 174.3806 14.64480729883421"
      },
      "geometry": {
        "type": "Point",
        "coordinates": [
          -87.23771351095617,
          -0.8619424002931527
        ]
      }
    },
    {
      "type": "Feature",
      "properties": {
        "norad_id": 34685,
        "name": "COSMOS 2251 DEB",
        "group": "cosmos-2251-debris",
        "lat": -24.108381905662277,
        "lon": 141.66551763073574,
        "alt_km": 704.9882141044363,
        "timestamp": "2025-12-12T14:39:18.327528+00:00",
        "meta_object_name": "COSMOS 2251 DEB",
        "meta_object_id": "1993-036YF",
        "meta_epoch": "2025-12-11T21:20:32.951328",
        "meta_mean_motion": 14.57494502,
        "meta_eccentricity": 0.0014287,
        "meta_inclination": 74.0292,
        "meta_ra_of_asc_node": 150.3995,
        "meta_arg_of_pericenter": 254.5432,
        "meta_mean_anomaly": 256.845,
        "meta_ephemeris_type": 0,
        "meta_classification_type": "U",
        "meta_norad_cat_id": 34685,
        "meta_element_set_no": 999,
        "meta_rev_at_epoch": 88519,
        "meta_bstar": 0.0016752,
        "meta_mean_motion_dot": 7.603e-05,
        "meta_mean_motion_ddot": 0,
        "tle_line1": "1 34685U 93036YF  25345.88927027  .00007603  00000+0  16752-2 0  9997",
        "tle_line2": "2 34685  74.0292 150.3995 0014287 254.5432 256.8450 14.57494502885193"
      },
      "geometry": {
        "type": "Point",
        "coordinates": [
          141.66551763073574,
          -24.108381905662277
        ]
      }
    },
    {
      "type": "Feature",
      "properties": {
        "norad_id": 34689,
        "name": "COSMOS 2251 DEB",
        "group": "cosmos-2251-debris",
        "lat": -18.384355175653482,
        "lon": 49.065221972923574,
        "alt_km": 889.2415515469083,
        "timestamp": "2025-12-12T14:39:18.327537+00:00",
        "meta_object_name": "COSMOS 2251 DEB",
        "meta_object_id": "1993-036YK",
        "meta_epoch": "2025-12-09T15:43:43.204224",
        "meta_mean_motion": 14.04380278,
        "meta_eccentricity": 0.022877,
        "meta_inclination": 74.0977,
        "meta_ra_of_asc_node": 228.7634,
        "meta_arg_of_pericenter": 298.3373,
        "meta_mean_anomaly": 87.6678,
        "meta_ephemeris_type": 0,
        "meta_classification_type": "U",
        "meta_norad_cat_id": 34689,
        "meta_element_set_no": 999,
        "meta_rev_at_epoch": 84298,
        "meta_bstar": 0.0057121,
        "meta_mean_motion_dot": 0.00011476,
        "meta_mean_motion_ddot": 0,
        "tle_line1": "1 34689U 93036YK  25343.65536116  .00011476  00000+0  57121-2 0  9997",
        "tle_line2": "2 34689  74.0977 228.7634 0228770 298.3373  87.6678 14.04380278842989"
      },
      "geometry": {
        "type": "Point",
        "coordinates": [
          49.065221972923574,
          -18.384355175653482
        ]
      }
    },
    {
      "type": "Feature",
      "properties": {
        "norad_id": 34721,
        "name": "COSMOS 2251 DEB",
        "group": "cosmos-2251-debris",
        "lat": -51.11980866138098,
        "lon": 167.4287596172958,
        "alt_km": 771.1822163879033,
        "timestamp": "2025-12-12T14:39:18.327546+00:00",
        "meta_object_name": "COSMOS 2251 DEB",
        "meta_object_id": "1993-036YP",
        "meta_epoch": "2025-12-11T15:46:16.254048",
        "meta_mean_motion": 13.96844968,
        "meta_eccentricity": 0.02237513,
        "meta_inclination": 73.9236,
        "meta_ra_of_asc_node": 328.1273,
        "meta_arg_of_pericenter": 267.2754,
        "meta_mean_anomaly": 215.1227,
        "meta_ephemeris_type": 0,
        "meta_classification_type": "U",
        "meta_norad_cat_id": 34721,
        "meta_element_set_no": 999,
        "meta_rev_at_epoch": 85134,
        "meta_bstar": 0.0023947669,
        "meta_mean_motion_dot": 4.09e-05,
        "meta_mean_motion_ddot": 0,
        "tle_line1": "1 34721U 93036YP  25345.65713257  .00004090  00000+0  23948-2 0  9993",
        "tle_line2": "2 34721  73.9236 328.1273 0223751 267.2754 215.1227 13.96844968851347"
      },
      "geometry": {
        "type": "Point",
        "coordinates": [
          167.4287596172958,
          -51.11980866138098
        ]
      }
    }
  ]
}